GLOBALSTAR M001 [-]     
1 25162U 98008A   24020.31284562 -.00000109  00000+0 -92566-4 0  9993
2 25162  52.0055  28.8502 0001524 246.3692 218.9490 12.38174003180050
GLOBALSTAR M004 [-]     
1 25163U 98008B   24020.62428523 -.00000065  00000+0  21343-3 0  9999
2 25163  51.9973 180.8529 0002460 210.2437 229.4814 12.63348814196878
GLOBALSTAR M002 [-]     
1 25164U 98008C   24020.57249021 -.00000101  00000+0 -47377-3 0  9995
2 25164  52.0018  87.9942 0000925 254.1082 105.9636 11.61497033124386
GLOBALSTAR M003 [-]     
1 25165U 98008D   24020.77758431  .00000046  00000+0  14449-2 0  9997
2 25165  51.9807 150.5208 0007435 344.9021 163.7617 12.11969920171059
GLOBALSTAR M014 [-]     
1 25306U 98023A   24020.22727187 -.00000053  00000+0  45998-3 0  9998
2 25306  51.9866  22.8879 0000898 132.2563 308.4792 11.65463465131241
GLOBALSTAR M006 [-]     
1 25307U 98023B   24020.26843365 -.00000098  00000+0 -45341-3 0  9992
2 25307  51.9951  56.0493 0003621 259.9449 180.5164 11.58156743157289
GLOBALSTAR M015 [-]     
1 25308U 98023C   24020.63946564 -.00000028  00000+0  10405-2 0  9993
2 25308  51.9817 130.0623 0011954 236.7205 230.9199 11.48858756135422
GLOBALSTAR M008 [-]     
1 25309U 98023D   24020.82982954 -.00000067  00000+0  22907-3 0  9992
2 25309  51.9946 246.3658 0002580 149.4646 291.6225 12.36034995174672
